IRIDIUM 39              
1 25042U 97069D   25070.76683026  .00001326  00000+0  34427-3 0  9990
2 25042  86.3862 252.8917 0015873 272.7304  87.2083 14.48970831434858
IRIDIUM 38              
1 25043U 97069E   25070.82314254  .00000765  00000+0  24666-3 0  9992
2 25043  86.3900 274.1371 0003852  73.9970 286.1652 14.37957548431966
IRIDIUM 42              
1 25077U 97077A   25070.84944437  .00000647  00000+0  21505-3 0  9990
2 25077  86.3909 280.1820 0002797  85.2171 274.9345 14.36206163427221
IRIDIUM 44              
1 25078U 97077B   25070.58009357  .00000841  00000+0  26066-3 0  9998
2 25078  86.3900 262.4571 0002547  43.9265 316.2136 14.40083888429689
IRIDIUM 45              
1 25104U 97082A   25070.76897934  .00021902  00000+0  88647-3 0  9994
2 25104  86.3548  95.0557 0125584 337.0349  22.5304 15.17501336437241
IRIDIUM 24              
1 25105U 97082B   25070.88641534  .00000765  00000+0  22746-3 0  9993
2 25105  86.3893 121.5863 0012883  48.2406 311.9893 14.41934530429197
IRIDIUM 51              
1 25262U 98018A   25070.88543377  .00033132  00000+0  93410-3 0  9993
2 25262  86.3829 103.7285 0098717 261.4522  97.5532 15.31420769432092
IRIDIUM 57              
1 25273U 98019B   25070.81611240  .00000747  00000+0  25174-3 0  9992
2 25273  86.4034 186.0169 0002152  94.1274 266.0169 14.35776379410810
